CCSDS_OMM_VERS = 2.0
CREATION_DATE  = 
ORIGINATOR     = 

OBJECT_NAME    = SL-4 R/B
OBJECT_ID      = 2014-021B
CENTER_NAME    = EARTH
REF_FRAME      = TEME
TIME_SYSTEM    = UTC
MEAN_ELEMENT_THEORY = SGP/SGP4

EPOCH          = 2026-01-20T21:11:14.739072
MEAN_MOTION    = 15.37665596
ECCENTRICITY   = .00991417
INCLINATION    = 51.6053
RA_OF_ASC_NODE = 210.2247
ARG_OF_PERICENTER = 288.4515
MEAN_ANOMALY   = 70.5711

EPHEMERIS_TYPE = 0
CLASSIFICATION_TYPE = U
NORAD_CAT_ID   = 39679
ELEMENT_SET_NO = 999
REV_AT_EPOCH   = 64891
BSTAR          = .49395642E-3
MEAN_MOTION_DOT = .21579E-3
MEAN_MOTION_DDOT = 0

CCSDS_OMM_VERS = 2.0
CREATION_DATE  = 
ORIGINATOR     = 

OBJECT_NAME    = YAOGAN-29
OBJECT_ID      = 2015-069A
CENTER_NAME    = EARTH
REF_FRAME      = TEME
TIME_SYSTEM    = UTC
MEAN_ELEMENT_THEORY = SGP/SGP4

EPOCH          = 2026-01-20T22:56:21.004224
MEAN_MOTION    = 14.82930907
ECCENTRICITY   = .00025719
INCLINATION    = 98.0185
RA_OF_ASC_NODE = 49.2479
ARG_OF_PERICENTER = 117.7528
MEAN_ANOMALY   = 242.3946

EPHEMERIS_TYPE = 0
CLASSIFICATION_TYPE = U
NORAD_CAT_ID   = 41038
ELEMENT_SET_NO = 999
REV_AT_EPOCH   = 54880
BSTAR          = .10908814E-3
MEAN_MOTION_DOT = .831E-5
MEAN_MOTION_DDOT = 0

CCSDS_OMM_VERS = 2.0
CREATION_DATE  = 
ORIGINATOR     = 

OBJECT_NAME    = ASTRO-H (HITOMI)
OBJECT_ID      = 2016-012A
CENTER_NAME    = EARTH
REF_FRAME      = TEME
TIME_SYSTEM    = UTC
MEAN_ELEMENT_THEORY = SGP/SGP4

EPOCH          = 2026-01-20T21:39:16.851168
MEAN_MOTION    = 15.09635245
ECCENTRICITY   = .00098646
INCLINATION    = 31.0008
RA_OF_ASC_NODE = 304.8490
ARG_OF_PERICENTER = 213.6911
MEAN_ANOMALY   = 146.3100

EPHEMERIS_TYPE = 0
CLASSIFICATION_TYPE = U
NORAD_CAT_ID   = 41337
ELEMENT_SET_NO = 999
REV_AT_EPOCH   = 54500
BSTAR          = .3566552E-3
MEAN_MOTION_DOT = .598E-4
MEAN_MOTION_DDOT = 0

CCSDS_OMM_VERS = 2.0
CREATION_DATE  = 
ORIGINATOR     = 

OBJECT_NAME    = HXMT (HUIYAN)
OBJECT_ID      = 2017-034A
CENTER_NAME    = EARTH
REF_FRAME      = TEME
TIME_SYSTEM    = UTC
MEAN_ELEMENT_THEORY = SGP/SGP4

EPOCH          = 2026-01-20T23:31:17.478624
MEAN_MOTION    = 15.16803702
ECCENTRICITY   = .0033312
INCLINATION    = 43.0142
RA_OF_ASC_NODE = 281.7916
ARG_OF_PERICENTER = 292.0291
MEAN_ANOMALY   = 67.7020

EPHEMERIS_TYPE = 0
CLASSIFICATION_TYPE = U
NORAD_CAT_ID   = 42758
ELEMENT_SET_NO = 999
REV_AT_EPOCH   = 47529
BSTAR          = .71848173E-3
MEAN_MOTION_DOT = .1437E-3
MEAN_MOTION_DDOT = 0

CCSDS_OMM_VERS = 2.0
CREATION_DATE  = 
ORIGINATOR     = 

OBJECT_NAME    = CZ-2C R/B
OBJECT_ID      = 2018-054D
CENTER_NAME    = EARTH
REF_FRAME      = TEME
TIME_SYSTEM    = UTC
MEAN_ELEMENT_THEORY = SGP/SGP4

EPOCH          = 2026-01-20T19:18:18.145152
MEAN_MOTION    = 15.85423287
ECCENTRICITY   = .00116894
INCLINATION    = 35.1321
RA_OF_ASC_NODE = 274.0170
ARG_OF_PERICENTER = 196.6992
MEAN_ANOMALY   = 163.3360

EPHEMERIS_TYPE = 0
CLASSIFICATION_TYPE = U
NORAD_CAT_ID   = 43521
ELEMENT_SET_NO = 999
REV_AT_EPOCH   = 42123
BSTAR          = .12671806E-2
MEAN_MOTION_DOT = .329814E-2
MEAN_MOTION_DDOT = 0

CCSDS_OMM_VERS = 2.0
CREATION_DATE  = 
ORIGINATOR     = 

OBJECT_NAME    = SAOCOM 1A
OBJECT_ID      = 2018-076A
CENTER_NAME    = EARTH
REF_FRAME      = TEME
TIME_SYSTEM    = UTC
MEAN_ELEMENT_THEORY = SGP/SGP4

EPOCH          = 2026-01-20T23:06:46.797696
MEAN_MOTION    = 14.82159209
ECCENTRICITY   = .00015528
INCLINATION    = 97.8850
RA_OF_ASC_NODE = 209.8154
ARG_OF_PERICENTER = 84.0633
MEAN_ANOMALY   = 276.0757

EPHEMERIS_TYPE = 0
CLASSIFICATION_TYPE = U
NORAD_CAT_ID   = 43641
ELEMENT_SET_NO = 999
REV_AT_EPOCH   = 39429
BSTAR          = .19938252E-3
MEAN_MOTION_DOT = .1535E-4
MEAN_MOTION_DDOT = 0

CCSDS_OMM_VERS = 2.0
CREATION_DATE  = 
ORIGINATOR     = 

OBJECT_NAME    = H-2A R/B
OBJECT_ID      = 2018-084L
CENTER_NAME    = EARTH
REF_FRAME      = TEME
TIME_SYSTEM    = UTC
MEAN_ELEMENT_THEORY = SGP/SGP4

EPOCH          = 2026-01-20T12:41:14.862336
MEAN_MOTION    = 15.39037736
ECCENTRICITY   = .00259542
INCLINATION    = 98.8754
RA_OF_ASC_NODE = 227.7023
ARG_OF_PERICENTER = 189.2793
MEAN_ANOMALY   = 170.7971

EPHEMERIS_TYPE = 0
CLASSIFICATION_TYPE = U
NORAD_CAT_ID   = 43682
ELEMENT_SET_NO = 999
REV_AT_EPOCH   = 39836
BSTAR          = .83501013E-3
MEAN_MOTION_DOT = .32654E-3
MEAN_MOTION_DDOT = 0

CCSDS_OMM_VERS = 2.0
CREATION_DATE  = 
ORIGINATOR     = 

OBJECT_NAME    = SAOCOM 1B
OBJECT_ID      = 2020-059A
CENTER_NAME    = EARTH
REF_FRAME      = TEME
TIME_SYSTEM    = UTC
MEAN_ELEMENT_THEORY = SGP/SGP4

EPOCH          = 2026-01-20T23:51:42.545088
MEAN_MOTION    = 14.82156508
ECCENTRICITY   = .00013355
INCLINATION    = 97.8844
RA_OF_ASC_NODE = 208.9450
ARG_OF_PERICENTER = 89.5559
MEAN_ANOMALY   = 270.5808

EPHEMERIS_TYPE = 0
CLASSIFICATION_TYPE = U
NORAD_CAT_ID   = 46265
ELEMENT_SET_NO = 999
REV_AT_EPOCH   = 29168
BSTAR          = .12436119E-3
MEAN_MOTION_DOT = .938E-5
MEAN_MOTION_DDOT = 0

CCSDS_OMM_VERS = 2.0
CREATION_DATE  = 
ORIGINATOR     = 

OBJECT_NAME    = CSS (TIANHE)
OBJECT_ID      = 2021-035A
CENTER_NAME    = EARTH
REF_FRAME      = TEME
TIME_SYSTEM    = UTC
MEAN_ELEMENT_THEORY = SGP/SGP4

EPOCH          = 2026-01-20T16:51:58.790592
MEAN_MOTION    = 15.60783355
ECCENTRICITY   = .0010813
INCLINATION    = 41.4671
RA_OF_ASC_NODE = 139.8756
ARG_OF_PERICENTER = 324.6098
MEAN_ANOMALY   = 35.4022

EPHEMERIS_TYPE = 0
CLASSIFICATION_TYPE = U
NORAD_CAT_ID   = 48274
ELEMENT_SET_NO = 999
REV_AT_EPOCH   = 27011
BSTAR          = .45544102E-3
MEAN_MOTION_DOT = .38992E-3
MEAN_MOTION_DDOT = 0

CCSDS_OMM_VERS = 2.0
CREATION_DATE  = 
ORIGINATOR     = 

OBJECT_NAME    = CZ-2C R/B
OBJECT_ID      = 2022-058K
CENTER_NAME    = EARTH
REF_FRAME      = TEME
TIME_SYSTEM    = UTC
MEAN_ELEMENT_THEORY = SGP/SGP4

EPOCH          = 2026-01-20T16:34:05.865024
MEAN_MOTION    = 15.50804623
ECCENTRICITY   = .00427088
INCLINATION    = 50.1879
RA_OF_ASC_NODE = 204.5688
ARG_OF_PERICENTER = 358.5753
MEAN_ANOMALY   = 1.5088

EPHEMERIS_TYPE = 0
CLASSIFICATION_TYPE = U
NORAD_CAT_ID   = 52794
ELEMENT_SET_NO = 999
REV_AT_EPOCH   = 20267
BSTAR          = .94508535E-3
MEAN_MOTION_DOT = .57639E-3
MEAN_MOTION_DDOT = 0

