SL-4 R/B                
1 39679U 14021B   26020.88280948  .00021579  00000+0  49396-3 0  9996
2 39679  51.6053 210.2247 0099141 288.4515  70.5711 15.37665596648913
YAOGAN-29               
1 41038U 15069A   26020.95579866  .00000831  00000+0  10909-3 0  9995
2 41038  98.0185  49.2479 0002571 117.7528 242.3946 14.82930907548808
ASTRO-H (HITOMI)        
1 41337U 16012A   26020.90227837  .00005980  00000+0  35666-3 0  9996
2 41337  31.0008 304.8490 0009864 213.6911 146.3100 15.09635245545009
HXMT (HUIYAN)           
1 42758U 17034A   26020.98006341  .00014370  00000+0  71848-3 0  9997
2 42758  43.0142 281.7916 0033312 292.0291  67.7020 15.16803702475295
CZ-2C R/B               
1 43521U 18054D   26020.80437668  .00329814  00000+0  12672-2 0  9991
2 43521  35.1321 274.0170 0011689 196.6992 163.3360 15.85423287421239
SAOCOM 1A               
1 43641U 18076A   26020.96304164  .00001535  00000+0  19938-3 0  9999
2 43641  97.8850 209.8154 0001552  84.0633 276.0757 14.82159209394295
H-2A R/B                
1 43682U 18084L   26020.52864424  .00032654  00000+0  83501-3 0  9998
2 43682  98.8754 227.7023 0025954 189.2793 170.7971 15.39037736398368
SAOCOM 1B               
1 46265U 20059A   26020.99424242  .00000938  00000+0  12436-3 0  9993
2 46265  97.8844 208.9450 0001335  89.5559 270.5808 14.82156508291682
CSS (TIANHE)            
1 48274U 21035A   26020.70276378  .00038992  00000+0  45544-3 0  9991
2 48274  41.4671 139.8756 0010813 324.6098  35.4022 15.60783355270114
CZ-2C R/B               
1 52794U 22058K   26020.69034566  .00057639  00000+0  94509-3 0  9992
2 52794  50.1879 204.5688 0042708 358.5753   1.5088 15.50804623202672
